     3.03           N: GNSS NAV DATA    M: Mixed            RINEX VERSION / TYPE
sbp2rinex v2.2 (RTKL                    20210504 171524 UTC PGM / RUN BY / DATE 
log: 2020-05-28-US-MTV-2.sbp                                COMMENT             
format: Swift Navigation SBP, option: CONVBASE,EPHALL,OBSALLCOMMENT             
                                                            END OF HEADER       
E36 2020  5 28 21 20  0  .554193917196E-03 -.491695573146E-11  .000000000000E+00
      .640000000000E+02 -.107500000000E+02  .301119685701E-08  .272659242006E+01
     -.391155481339E-06  .191367114894E-03  .135228037834E-05  .544061025620E+04
      .422400000000E+06 -.391155481339E-07  .278584003612E+01 -.745058059692E-07
      .991568864332E+00  .327343750000E+03 -.356058999332E+00 -.578666960944E-08
      .168578450541E-09  .500000000000E+01  .210700000000E+04  .100000000000E+01
      .312000000000E+01  .000000000000E+00  .372529029846E-08  .419095158577E-08
      .423629000000E+06  .000000000000E+00
G 1 2020  5 28 22  0  0 -.386188738048E-03 -.375166564481E-11  .000000000000E+00
      .102000000000E+03 -.472500000000E+02  .425803450709E-08  .281742038224E+01
     -.258907675743E-05  .991190341301E-02  .367127358913E-05  .515362655258E+04
      .424800000000E+06 -.596046447754E-07  .307303595436E+01 -.156462192535E-06
      .980485298108E+00  .319093750000E+03  .781566703413E+00 -.793140180329E-08
     -.171435712414E-10  .200000000000E+01  .210700000000E+04  .100000000000E+01
      .400000000000E+01  .000000000000E+00  .512227416039E-08  .102000000000E+03
      .423629000000E+06  .400000000000E+01
G17 2020  5 28 22  0  0  .272088684142E-03  .602540239925E-11  .000000000000E+00
      .270000000000E+02  .803750000000E+02  .406766943476E-08 -.141702501811E+01
      .450760126114E-05  .132204212714E-01  .580586493015E-05  .515371042824E+04
      .424800000000E+06 -.745058059692E-08  .207587052429E+01  .327825546265E-06
      .983823568909E+00  .282843750000E+03 -.164226975698E+01 -.799997608826E-08
      .225009372544E-09  .200000000000E+01  .210700000000E+04  .100000000000E+01
      .200000000000E+01  .000000000000E+00 -.107102096081E-07  .270000000000E+02
      .423629000000E+06  .400000000000E+01
G12 2020  5 28 22  0  0  .112563837320E-03 -.443378667114E-11  .000000000000E+00
      .260000000000E+02  .376875000000E+02  .399516641472E-08  .135980952692E+01
      .190176069736E-05  .808216724545E-02  .938400626183E-05  .515368849182E+04
      .424800000000E+06 -.162050127983E-06  .104113563902E+01 -.596046447754E-07
      .978302321510E+00  .206000000000E+03  .115698815498E+01 -.786532762247E-08
     -.281440294547E-09  .200000000000E+01  .210700000000E+04  .100000000000E+01
      .200000000000E+01  .000000000000E+00 -.121071934700E-07  .260000000000E+02
      .423629000000E+06  .400000000000E+01
R19 2020  5 28 21 45  0 -.954456627369E-04 -.909494701773E-12  .792000000000E+05
      .222785380859E+05  .146098423004E+01  .000000000000E+00  .000000000000E+00
     -.619139013672E+04 -.313737869263E+00 -.279396772385E-08  .300000000000E+01
      .107668574219E+05 -.320198249817E+01  .000000000000E+00  .240000000000E+04
G 2 2020  5 28 22  0  0 -.463346019387E-03 -.613908923697E-11  .000000000000E+00
      .590000000000E+02 -.290000000000E+02  .484198740250E-08  .305687322288E+01
     -.135041773319E-05  .197129837470E-01  .223517417908E-05  .515370658493E+04
      .424800000000E+06  .352039933205E-06  .299674258800E+01 -.111758708954E-06
      .959447316055E+00  .332343750000E+03 -.162710552268E+01 -.818176937496E-08
      .357157734196E-11  .200000000000E+01  .210700000000E+04  .100000000000E+01
      .200000000000E+01  .000000000000E+00 -.176951289177E-07  .590000000000E+02
      .423629000000E+06  .400000000000E+01
G 3 2020  5 28 22  0  0 -.190811231732E-03 -.125055521494E-10  .000000000000E+00
      .570000000000E+02 -.795937500000E+02  .436446751188E-08  .179175144900E+01
     -.423006713390E-05  .286356289871E-02  .901892781258E-05  .515355193138E+04
      .424800000000E+06 -.102445483208E-06 -.217003534556E+01  .409781932831E-07
      .965619594183E+00  .208343750000E+03  .702683211336E+00 -.793175896103E-08
     -.557166065346E-10  .200000000000E+01  .210700000000E+04  .100000000000E+01
      .200000000000E+01  .000000000000E+00  .186264514923E-08  .570000000000E+02
      .423629000000E+06  .400000000000E+01
G 4 2020  5 28 22  0  0 -.953651033342E-04 -.488853402203E-11  .000000000000E+00
      .300000000000E+01  .931250000000E+01  .450125892407E-08 -.235588684583E+01
      .415369868279E-06  .744844321162E-03  .921078026295E-05  .515367711067E+04
      .424800000000E+06 -.931322574615E-07 -.109082715381E+01  .707805156708E-07
      .959684961245E+00  .201375000000E+03 -.259962939238E+01 -.788425698238E-08
      .261082303697E-09  .200000000000E+01  .210700000000E+04  .100000000000E+01
      .200000000000E+01  .000000000000E+00 -.419095158577E-08  .300000000000E+01
      .423630000000E+06  .400000000000E+01
G 6 2020  5 28 22  0  0 -.279592815787E-03 -.648014975013E-11  .000000000000E+00
      .950000000000E+02 -.394062500000E+02  .444447084434E-08  .296049905153E+01
     -.182911753654E-05  .190929695964E-02  .342726707458E-05  .515354707146E+04
      .424800000000E+06  .353902578354E-07  .306479553139E+01  .782310962677E-07
      .980042825369E+00  .324218750000E+03 -.105219718540E+01 -.822819988041E-08
      .714315468392E-11  .200000000000E+01  .210700000000E+04  .100000000000E+01
      .200000000000E+01  .000000000000E+00  .419095158577E-08  .950000000000E+02
      .423630000000E+06  .400000000000E+01
G 8 2020  5 28 22  0  0 -.355979427695E-04 -.125055521494E-11  .000000000000E+00
      .580000000000E+02  .684687500000E+02  .436446751188E-08 -.119750105257E+01
      .333972275257E-05  .534562091343E-02  .570900738239E-05  .515367403984E+04
      .424800000000E+06  .745058059692E-08  .200313965897E+01 -.726431608200E-07
      .969509064721E+00  .272750000000E+03 -.731281880254E-01 -.810390898891E-08
      .227509476683E-09  .200000000000E+01  .210700000000E+04  .100000000000E+01
      .200000000000E+01  .000000000000E+00  .512227416039E-08  .580000000000E+02
      .423630000000E+06  .400000000000E+01
G11 2020  5 28 22  0  0 -.264328904450E-03  .106865627458E-10  .000000000000E+00
      .790000000000E+02  .225312500000E+02  .573202447611E-08  .229868244942E+01
      .108964741230E-05  .159675560426E-01  .213272869587E-05  .515371871758E+04
      .424800000000E+06  .245869159698E-06  .259851679637E+01 -.745058059692E-08
      .912882041110E+00  .309468750000E+03  .198615998283E+01 -.861964475709E-08
     -.678599694973E-11  .200000000000E+01  .210700000000E+04  .100000000000E+01
      .200000000000E+01  .000000000000E+00 -.125728547573E-07  .790000000000E+02
      .423631000000E+06  .400000000000E+01
G13 2020  5 28 22  0  0  .137346796691E-04  .306954461848E-11  .000000000000E+00
      .280000000000E+02  .937500000000E+00  .427946397114E-08 -.206080984850E+01
      .119209289551E-06  .412830535788E-02  .924430787563E-05  .515365784454E+04
      .424800000000E+06  .838190317154E-07 -.995832891637E+00 -.651925802231E-07
      .967595819495E+00  .206375000000E+03  .107894715450E+01 -.771460705864E-08
      .236795577772E-09  .200000000000E+01  .210700000000E+04  .100000000000E+01
      .200000000000E+01  .000000000000E+00 -.111758708954E-07  .280000000000E+02
      .423631000000E+06  .400000000000E+01
G14 2020  5 28 22  0  0 -.980030745268E-05  .261479726760E-11  .000000000000E+00
      .101000000000E+03  .578125000000E+01  .451697386438E-08 -.156043735706E+01
      .314787030220E-06  .114534718450E-01  .873021781445E-05  .515364698410E+04
      .424800000000E+06  .253319740295E-06 -.104282555517E+01  .154599547386E-06
      .960169681596E+00  .212093750000E+03 -.191499567308E+01 -.789211445253E-08
      .152149194768E-09  .200000000000E+01  .210700000000E+04  .100000000000E+01
      .200000000000E+01  .000000000000E+00 -.977888703346E-08  .101000000000E+03
      .423631000000E+06  .400000000000E+01
R 9 2020  5 28 21 45  0  .135066919029E-03  .181898940355E-11  .792000000000E+05
     -.829537060547E+04  .835000991821E+00  .931322574615E-09  .000000000000E+00
     -.211814941406E+05  .133633708954E+01  .000000000000E+00 -.200000000000E+01
     -.114555820312E+05 -.307844257355E+01  .279396772385E-08  .240000000000E+04
G22 2020  5 28 22  0  0 -.780561473221E-03  .159161572810E-11  .000000000000E+00
      .440000000000E+02 -.820000000000E+02  .512092759290E-08 -.221518343617E+01
     -.428967177868E-05  .708522135392E-02  .827759504318E-05  .515382614899E+04
      .424800000000E+06 -.931322574615E-08 -.225652362856E+01  .171363353729E-06
      .930683289118E+00  .200906250000E+03 -.114395886090E+01 -.822427114533E-08
     -.685742849656E-10  .200000000000E+01  .210700000000E+04  .100000000000E+01
      .200000000000E+01  .000000000000E+00 -.181607902050E-07  .440000000000E+02
      .423632000000E+06  .400000000000E+01
G19 2020  5 28 22  0  0 -.152615830302E-03  .511590769747E-11  .000000000000E+00
      .300000000000E+02  .712187500000E+02  .417981696330E-08  .123738807868E+01
      .354088842869E-05  .944123836234E-02  .611506402493E-05  .515368981552E+04
      .424800000000E+06 -.838190317154E-07  .212151642837E+01 -.206753611565E-06
      .982030843264E+00  .274125000000E+03  .162444748830E+01 -.807390773924E-08
      .239652839646E-09  .200000000000E+01  .210700000000E+04  .100000000000E+01
      .200000000000E+01  .000000000000E+00 -.153668224812E-07  .300000000000E+02
      .423632000000E+06  .400000000000E+01
